[{"OBJECT_NAME":"WEILAI 1R","OBJECT_ID":"2019-093F","EPOCH":"2026-03-09T22:33:48.244608","MEAN_MOTION":14.997592,"ECCENTRICITY":0.00116762,"INCLINATION":97.7939,"RA_OF_ASC_NODE":158.7373,"ARG_OF_PERICENTER":23.5076,"MEAN_ANOMALY":336.6679,"EPHEMERIS_TYPE":0,"CLASSIFICATION_TYPE":"U","NORAD_CAT_ID":44884,"ELEMENT_SET_NO":999,"REV_AT_EPOCH":33754,"BSTAR":0.00050142794,"MEAN_MOTION_DOT":6.146e-5,"MEAN_MOTION_DDOT":0},{"OBJECT_NAME":"STARLINK-34546","OBJECT_ID":"2025-142Y","EPOCH":"2026-03-09T22:44:53.642112","MEAN_MOTION":14.98327234,"ECCENTRICITY":0.00023811,"INCLINATION":70.0017,"RA_OF_ASC_NODE":313.6364,"ARG_OF_PERICENTER":265.7036,"MEAN_ANOMALY":94.3851,"EPHEMERIS_TYPE":0,"CLASSIFICATION_TYPE":"U","NORAD_CAT_ID":64718,"ELEMENT_SET_NO":999,"REV_AT_EPOCH":3969,"BSTAR":0.00011740333,"MEAN_MOTION_DOT":1.308e-5,"MEAN_MOTION_DDOT":0}]
